FENGYUN 1C DEB          
1 30744U 99025ATE 26163.31537274  .00094645  00000+0  49123-2 0  9991
2 30744  98.7321 337.0857 0004105  67.4723  26.2915 15.15694944  8070
