[
  {
    "OBJECT_NAME": "FENGYUN 1C DEB",
    "OBJECT_ID": "1999-025ATE",
    "EPOCH": "2026-06-12T07:34:08.204736",
    "MEAN_MOTION": 15.15694944,
    "ECCENTRICITY": 0.00041056,
    "INCLINATION": 98.7321,
    "RA_OF_ASC_NODE": 337.0857,
    "ARG_OF_PERICENTER": 67.4723,
    "MEAN_ANOMALY": 26.2915,
    "EPHEMERIS_TYPE": 0,
    "CLASSIFICATION_TYPE": "U",
    "NORAD_CAT_ID": 30744,
    "ELEMENT_SET_NO": 999,
    "REV_AT_EPOCH": 807,
    "BSTAR": 0.0049122705,
    "MEAN_MOTION_DOT": 0.00094645,
    "MEAN_MOTION_DDOT": 0
  }
]
